[{"OBJECT_NAME":"S-NET A","OBJECT_ID":"2018-014J","EPOCH":"2026-03-09T17:45:22.875840","MEAN_MOTION":15.15637105,"ECCENTRICITY":0.00092363,"INCLINATION":97.5446,"RA_OF_ASC_NODE":334.3608,"ARG_OF_PERICENTER":10.8145,"MEAN_ANOMALY":349.3285,"EPHEMERIS_TYPE":0,"CLASSIFICATION_TYPE":"U","NORAD_CAT_ID":43188,"ELEMENT_SET_NO":999,"REV_AT_EPOCH":44369,"BSTAR":0.00039378194,"MEAN_MOTION_DOT":7.428e-5,"MEAN_MOTION_DDOT":0},{"OBJECT_NAME":"STARLINK-2084","OBJECT_ID":"2021-005V","EPOCH":"2026-03-10T00:00:02.999808","MEAN_MOTION":15.1207585,"ECCENTRICITY":2.582e-5,"INCLINATION":53.0759,"RA_OF_ASC_NODE":60.1546,"ARG_OF_PERICENTER":161.2563,"MEAN_ANOMALY":166.4598,"EPHEMERIS_TYPE":0,"CLASSIFICATION_TYPE":"U","NORAD_CAT_ID":47368,"ELEMENT_SET_NO":999,"REV_AT_EPOCH":574,"BSTAR":0.004658,"MEAN_MOTION_DOT":0.00081703,"MEAN_MOTION_DDOT":0}]
